[{"OBJECT_NAME":"ONEWEB-0564","OBJECT_ID":"2023-029F","EPOCH":"2025-10-31T19:17:18.783168","MEAN_MOTION":13.20771455,"ECCENTRICITY":0.0001518,"INCLINATION":87.9191,"RA_OF_ASC_NODE":320.0215,"ARG_OF_PERICENTER":87.3496,"MEAN_ANOMALY":272.7811,"EPHEMERIS_TYPE":0,"CLASSIFICATION_TYPE":"U","NORAD_CAT_ID":55801,"ELEMENT_SET_NO":999,"REV_AT_EPOCH":13100,"BSTAR":-5.7928e-5,"MEAN_MOTION_DOT":-1.1e-7,"MEAN_MOTION_DDOT":0},{"OBJECT_NAME":"ONEWEB-0638","OBJECT_ID":"2023-029G","EPOCH":"2025-10-31T19:28:20.678016","MEAN_MOTION":13.14501596,"ECCENTRICITY":0.0001454,"INCLINATION":87.9004,"RA_OF_ASC_NODE":335.2684,"ARG_OF_PERICENTER":102.807,"MEAN_ANOMALY":257.3223,"EPHEMERIS_TYPE":0,"CLASSIFICATION_TYPE":"U","NORAD_CAT_ID":55802,"ELEMENT_SET_NO":999,"REV_AT_EPOCH":12939,"BSTAR":-0.0014579,"MEAN_MOTION_DOT":-5.28e-6,"MEAN_MOTION_DDOT":0},{"OBJECT_NAME":"ONEWEB-0639","OBJECT_ID":"2023-029H","EPOCH":"2025-10-31T19:45:39.714048","MEAN_MOTION":13.19725943,"ECCENTRICITY":0.0002833,"INCLINATION":87.9231,"RA_OF_ASC_NODE":350.4213,"ARG_OF_PERICENTER":113.7902,"MEAN_ANOMALY":246.3528,"EPHEMERIS_TYPE":0,"CLASSIFICATION_TYPE":"U","NORAD_CAT_ID":55803,"ELEMENT_SET_NO":999,"REV_AT_EPOCH":12878,"BSTAR":0.00020724,"MEAN_MOTION_DOT":9.6e-7,"MEAN_MOTION_DDOT":0},{"OBJECT_NAME":"ONEWEB-0640","OBJECT_ID":"2023-029J","EPOCH":"2025-10-31T19:42:03.105792","MEAN_MOTION":13.14504098,"ECCENTRICITY":0.000167,"INCLINATION":87.9007,"RA_OF_ASC_NODE":335.2519,"ARG_OF_PERICENTER":120.8744,"MEAN_ANOMALY":239.255,"EPHEMERIS_TYPE":0,"CLASSIFICATION_TYPE":"U","NORAD_CAT_ID":55804,"ELEMENT_SET_NO":999,"REV_AT_EPOCH":12941,"BSTAR":-0.00032517,"MEAN_MOTION_DOT":-1.08e-6,"MEAN_MOTION_DDOT":0},{"OBJECT_NAME":"ONEWEB-0641","OBJECT_ID":"2023-029K","EPOCH":"2025-10-31T14:11:18.245760","MEAN_MOTION":13.19725693,"ECCENTRICITY":0.0002092,"INCLINATION":87.9243,"RA_OF_ASC_NODE":350.4443,"ARG_OF_PERICENTER":101.5467,"MEAN_ANOMALY":258.5901,"EPHEMERIS_TYPE":0,"CLASSIFICATION_TYPE":"U","NORAD_CAT_ID":55805,"ELEMENT_SET_NO":999,"REV_AT_EPOCH":12876,"BSTAR":-7.9135e-5,"MEAN_MOTION_DOT":-1.9e-7,"MEAN_MOTION_DDOT":0},{"OBJECT_NAME":"ONEWEB-0642","OBJECT_ID":"2023-029L","EPOCH":"2025-10-31T14:04:28.945632","MEAN_MOTION":13.19725716,"ECCENTRICITY":0.0002743,"INCLINATION":87.9234,"RA_OF_ASC_NODE":350.4729,"ARG_OF_PERICENTER":106.5896,"MEAN_ANOMALY":253.5538,"EPHEMERIS_TYPE":0,"CLASSIFICATION_TYPE":"U","NORAD_CAT_ID":55806,"ELEMENT_SET_NO":999,"REV_AT_EPOCH":12875,"BSTAR":-0.00011431,"MEAN_MOTION_DOT":-3.3e-7,"MEAN_MOTION_DDOT":0},{"OBJECT_NAME":"ONEWEB-0643","OBJECT_ID":"2023-029M","EPOCH":"2025-10-31T18:58:39.601632","MEAN_MOTION":13.14504515,"ECCENTRICITY":0.0002568,"INCLINATION":87.9009,"RA_OF_ASC_NODE":335.243,"ARG_OF_PERICENTER":96.645,"MEAN_ANOMALY":263.4972,"EPHEMERIS_TYPE":0,"CLASSIFICATION_TYPE":"U","NORAD_CAT_ID":55807,"ELEMENT_SET_NO":999,"REV_AT_EPOCH":12938,"BSTAR":0.00027203,"MEAN_MOTION_DOT":1.14e-6,"MEAN_MOTION_DDOT":0},{"OBJECT_NAME":"ONEWEB-0644","OBJECT_ID":"2023-029N","EPOCH":"2025-10-31T15:46:49.785024","MEAN_MOTION":13.19724952,"ECCENTRICITY":0.0002374,"INCLINATION":87.9231,"RA_OF_ASC_NODE":350.4676,"ARG_OF_PERICENTER":103.1925,"MEAN_ANOMALY":256.9473,"EPHEMERIS_TYPE":0,"CLASSIFICATION_TYPE":"U","NORAD_CAT_ID":55808,"ELEMENT_SET_NO":999,"REV_AT_EPOCH":12876,"BSTAR":7.2334e-5,"MEAN_MOTION_DOT":4.2e-7,"MEAN_MOTION_DDOT":0},{"OBJECT_NAME":"ONEWEB-0645","OBJECT_ID":"2023-029P","EPOCH":"2025-10-31T15:51:30.273984","MEAN_MOTION":13.18130402,"ECCENTRICITY":0.0002098,"INCLINATION":87.9229,"RA_OF_ASC_NODE":350.4534,"ARG_OF_PERICENTER":111.4152,"MEAN_ANOMALY":248.7203,"EPHEMERIS_TYPE":0,"CLASSIFICATION_TYPE":"U","NORAD_CAT_ID":55809,"ELEMENT_SET_NO":999,"REV_AT_EPOCH":12876,"BSTAR":-7.6375e-5,"MEAN_MOTION_DOT":-1.7e-7,"MEAN_MOTION_DDOT":0},{"OBJECT_NAME":"ONEWEB-0646","OBJECT_ID":"2023-029Q","EPOCH":"2025-10-31T16:43:40.253952","MEAN_MOTION":13.19722845,"ECCENTRICITY":0.0002183,"INCLINATION":87.9233,"RA_OF_ASC_NODE":350.4437,"ARG_OF_PERICENTER":100.5647,"MEAN_ANOMALY":259.5732,"EPHEMERIS_TYPE":0,"CLASSIFICATION_TYPE":"U","NORAD_CAT_ID":55810,"ELEMENT_SET_NO":999,"REV_AT_EPOCH":12875,"BSTAR":0.00023894,"MEAN_MOTION_DOT":1.09e-6,"MEAN_MOTION_DDOT":0},{"OBJECT_NAME":"ONEWEB-0648","OBJECT_ID":"2023-029R","EPOCH":"2025-10-31T20:02:36.803616","MEAN_MOTION":13.14501633,"ECCENTRICITY":0.0002516,"INCLINATION":87.8997,"RA_OF_ASC_NODE":335.1972,"ARG_OF_PERICENTER":115.6053,"MEAN_ANOMALY":244.5337,"EPHEMERIS_TYPE":0,"CLASSIFICATION_TYPE":"U","NORAD_CAT_ID":55811,"ELEMENT_SET_NO":999,"REV_AT_EPOCH":12939,"BSTAR":0.00041572,"MEAN_MOTION_DOT":1.67e-6,"MEAN_MOTION_DDOT":0},{"OBJECT_NAME":"ONEWEB-0649","OBJECT_ID":"2023-029S","EPOCH":"2025-10-31T15:30:54.946656","MEAN_MOTION":13.19725235,"ECCENTRICITY":0.0002206,"INCLINATION":87.9238,"RA_OF_ASC_NODE":350.4483,"ARG_OF_PERICENTER":107.6836,"MEAN_ANOMALY":252.4538,"EPHEMERIS_TYPE":0,"CLASSIFICATION_TYPE":"U","NORAD_CAT_ID":55812,"ELEMENT_SET_NO":999,"REV_AT_EPOCH":12878,"BSTAR":2.4473e-5,"MEAN_MOTION_DOT":2.3e-7,"MEAN_MOTION_DDOT":0},{"OBJECT_NAME":"ONEWEB-0650","OBJECT_ID":"2023-029T","EPOCH":"2025-10-31T15:24:05.213664","MEAN_MOTION":13.19726061,"ECCENTRICITY":0.0002099,"INCLINATION":87.9231,"RA_OF_ASC_NODE":350.4579,"ARG_OF_PERICENTER":100.2787,"MEAN_ANOMALY":259.8582,"EPHEMERIS_TYPE":0,"CLASSIFICATION_TYPE":"U","NORAD_CAT_ID":55813,"ELEMENT_SET_NO":999,"REV_AT_EPOCH":12875,"BSTAR":4.3441e-5,"MEAN_MOTION_DOT":3.0e-7,"MEAN_MOTION_DDOT":0},{"OBJECT_NAME":"ONEWEB-0652","OBJECT_ID":"2023-029U","EPOCH":"2025-10-31T19:35:12.494112","MEAN_MOTION":13.14503234,"ECCENTRICITY":0.0001747,"INCLINATION":87.9008,"RA_OF_ASC_NODE":335.2215,"ARG_OF_PERICENTER":90.6041,"MEAN_ANOMALY":269.5289,"EPHEMERIS_TYPE":0,"CLASSIFICATION_TYPE":"U","NORAD_CAT_ID":55814,"ELEMENT_SET_NO":999,"REV_AT_EPOCH":12936,"BSTAR":-0.00034943,"MEAN_MOTION_DOT":-1.17e-6,"MEAN_MOTION_DDOT":0},{"OBJECT_NAME":"ONEWEB-0653","OBJECT_ID":"2023-029V","EPOCH":"2025-10-31T15:33:10.308672","MEAN_MOTION":13.14501617,"ECCENTRICITY":0.0001634,"INCLINATION":87.9009,"RA_OF_ASC_NODE":335.2448,"ARG_OF_PERICENTER":97.6221,"MEAN_ANOMALY":262.5095,"EPHEMERIS_TYPE":0,"CLASSIFICATION_TYPE":"U","NORAD_CAT_ID":55815,"ELEMENT_SET_NO":999,"REV_AT_EPOCH":12937,"BSTAR":-0.00046021,"MEAN_MOTION_DOT":-1.58e-6,"MEAN_MOTION_DDOT":0},{"OBJECT_NAME":"ONEWEB-0654","OBJECT_ID":"2023-029W","EPOCH":"2025-10-31T19:05:30.945120","MEAN_MOTION":13.14504241,"ECCENTRICITY":0.0001558,"INCLINATION":87.901,"RA_OF_ASC_NODE":335.2145,"ARG_OF_PERICENTER":87.2745,"MEAN_ANOMALY":272.8563,"EPHEMERIS_TYPE":0,"CLASSIFICATION_TYPE":"U","NORAD_CAT_ID":55816,"ELEMENT_SET_NO":999,"REV_AT_EPOCH":12941,"BSTAR":-0.00016482,"MEAN_MOTION_DOT":-4.8e-7,"MEAN_MOTION_DDOT":0},{"OBJECT_NAME":"ONEWEB-0656","OBJECT_ID":"2023-029X","EPOCH":"2025-10-31T19:08:13.297632","MEAN_MOTION":13.20771378,"ECCENTRICITY":0.0001573,"INCLINATION":87.9202,"RA_OF_ASC_NODE":319.9755,"ARG_OF_PERICENTER":81.541,"MEAN_ANOMALY":278.5902,"EPHEMERIS_TYPE":0,"CLASSIFICATION_TYPE":"U","NORAD_CAT_ID":55817,"ELEMENT_SET_NO":999,"REV_AT_EPOCH":13100,"BSTAR":-0.00035469,"MEAN_MOTION_DOT":-1.31e-6,"MEAN_MOTION_DDOT":0}]
