ONEWEB-0564             
1 55801U 23029F   25304.80368962 -.00000011  00000+0 -57928-4 0  9999
2 55801  87.9191 320.0215 0001518  87.3496 272.7811 13.20771455131009
ONEWEB-0638             
1 55802U 23029G   25304.81135044 -.00000528  00000+0 -14579-2 0  9990
2 55802  87.9004 335.2684 0001454 102.8070 257.3223 13.14501596129396
ONEWEB-0639             
1 55803U 23029H   25304.82337632  .00000096  00000+0  20724-3 0  9997
2 55803  87.9231 350.4213 0002833 113.7902 246.3528 13.19725943128780
ONEWEB-0640             
1 55804U 23029J   25304.82086928 -.00000108  00000+0 -32517-3 0  9996
2 55804  87.9007 335.2519 0001670 120.8744 239.2550 13.14504098129411
ONEWEB-0641             
1 55805U 23029K   25304.59118340 -.00000019  00000+0 -79135-4 0  9994
2 55805  87.9243 350.4443 0002092 101.5467 258.5901 13.19725693128768
ONEWEB-0642             
1 55806U 23029L   25304.58644613 -.00000033  00000+0 -11431-3 0  9991
2 55806  87.9234 350.4729 0002743 106.5896 253.5538 13.19725716128756
ONEWEB-0643             
1 55807U 23029M   25304.79073613  .00000114  00000+0  27203-3 0  9993
2 55807  87.9009 335.2430 0002568  96.6450 263.4972 13.14504515129386
ONEWEB-0644             
1 55808U 23029N   25304.65752066  .00000042  00000+0  72334-4 0  9991
2 55808  87.9231 350.4676 0002374 103.1925 256.9473 13.19724952128769
ONEWEB-0645             
1 55809U 23029P   25304.66076706 -.00000017  00000+0 -76375-4 0  9996
2 55809  87.9229 350.4534 0002098 111.4152 248.7203 13.18130402128767
ONEWEB-0646             
1 55810U 23029Q   25304.69699368  .00000109  00000+0  23894-3 0  9993
2 55810  87.9233 350.4437 0002183 100.5647 259.5732 13.19722845128754
ONEWEB-0648             
1 55811U 23029R   25304.83514819  .00000167  00000+0  41572-3 0  9994
2 55811  87.8997 335.1972 0002516 115.6053 244.5337 13.14501633129394
ONEWEB-0649             
1 55812U 23029S   25304.64646929  .00000023  00000+0  24473-4 0  9995
2 55812  87.9238 350.4483 0002206 107.6836 252.4538 13.19725235128781
ONEWEB-0650             
1 55813U 23029T   25304.64172701  .00000030  00000+0  43441-4 0  9992
2 55813  87.9231 350.4579 0002099 100.2787 259.8582 13.19726061128750
ONEWEB-0652             
1 55814U 23029U   25304.81611683 -.00000117  00000+0 -34943-3 0  9993
2 55814  87.9008 335.2215 0001747  90.6041 269.5289 13.14503234129365
ONEWEB-0653             
1 55815U 23029V   25304.64803598 -.00000158  00000+0 -46021-3 0  9998
2 55815  87.9009 335.2448 0001634  97.6221 262.5095 13.14501617129379
ONEWEB-0654             
1 55816U 23029W   25304.79549705 -.00000048  00000+0 -16482-3 0  9998
2 55816  87.9010 335.2145 0001558  87.2745 272.8563 13.14504241129412
ONEWEB-0656             
1 55817U 23029X   25304.79737613 -.00000131  00000+0 -35469-3 0  9995
2 55817  87.9202 319.9755 0001573  81.5410 278.5902 13.20771378131007
